OBJECT_NAME,OBJECT_ID,EPOCH,MEAN_MOTION,ECCENTRICITY,INCLINATION,RA_OF_ASC_NODE,ARG_OF_PERICENTER,MEAN_ANOMALY,EPHEMERIS_TYPE,CLASSIFICATION_TYPE,NORAD_CAT_ID,ELEMENT_SET_NO,REV_AT_EPOCH,BSTAR,MEAN_MOTION_DOT,MEAN_MOTION_DDOT
INTELSAT 23 (IS-23),2012-057A,2026-07-09T07:43:38.755776,1.00270076,.00004189,0.0138,27.5034,189.0045,133.6672,0,U,38867,999,5017,0,-.271E-5,0
FM-6,2013-058A,2026-07-08T14:40:48.636192,1.00271072,.00026079,0.0459,69.0588,113.2194,208.1550,0,U,39360,999,4628,0,0,0
INTELSAT 30 (IS-30),2014-062A,2026-07-09T06:21:27.774720,1.00270721,.00011543,0.0203,52.8186,336.9235,257.7777,0,U,40271,999,701,0,-.137E-5,0
DIRECTV 14,2014-078B,2026-07-08T14:30:49.439232,1.00270853,.00003913,0.0094,27.8117,314.0682,63.1432,0,U,40333,999,4225,0,-.111E-5,0
DIRECTV 15,2015-026A,2026-07-09T06:41:59.527680,1.00269301,.00002115,0.0182,70.6170,237.1992,337.0257,0,U,40663,999,4068,0,-.89E-6,0
SKY MEXICO-1,2015-026B,2026-07-09T05:39:01.355040,1.00269950,.00024345,0.0159,344.1082,146.8958,162.1271,0,U,40664,999,4067,0,-.22E-5,0
INTELSAT 34 (IS-34),2015-039A,2026-07-09T07:43:38.755776,1.00269773,.00002731,0.0095,0.4368,350.7495,356.4925,0,U,40874,999,3985,0,-.272E-5,0
INTELSAT 31 (IS-31),2016-035A,2026-07-09T06:21:27.774720,1.00269957,.00010559,0.0257,262.4656,19.6437,5.4099,0,U,41581,999,3690,0,-.137E-5,0
INTELSAT 36 (IS-36),2016-053A,2026-07-07T19:12:15.204672,1.00285795,.00009753,0.0091,10.2892,27.8198,244.1989,0,U,41747,999,3616,0,-.12E-6,0
INTELSAT 32E (IS-32E),2017-007B,2026-07-08T18:37:36.164064,1.00268707,.00006833,0.0157,6.8744,316.4422,199.6267,0,U,41945,999,3444,0,-.255E-5,0
INTELSAT 35E (IS-35E),2017-041A,2026-07-09T07:35:38.812416,1.00269548,.00015698,0.0259,34.7520,74.8672,257.0624,0,U,42818,999,3303,0,0,0
INTELSAT 37E (IS-37E),2017-059A,2026-07-09T07:19:38.686368,1.00270995,.00025701,0.0192,41.5278,73.8090,263.8242,0,U,42950,999,3228,0,-.127E-5,0
AZERSPACE 2 (IS-38),2018-074A,2026-07-09T05:18:46.673856,1.00271782,.00011978,0.0268,37.0075,87.2013,287.7590,0,U,43632,999,2866,0,0,0
HORIZONS-3E,2018-074B,2026-07-09T06:27:38.666592,1.00272097,.00010171,0.0348,213.1030,68.5787,271.4472,0,U,43633,999,2856,0,-.17E-6,0
AT&T T-16,2019-034A,2026-07-08T21:46:26.030208,1.00276266,.00008218,0.0150,69.4947,234.2043,208.9039,0,U,44333,999,2585,0,-.102E-5,0
INTELSAT 39 (IS-39),2019-049B,2026-07-08T21:48:38.814912,1.00270097,.00008679,0.0249,29.7598,289.1456,357.0558,0,U,44476,999,2534,0,0,0
GALAXY 30 (G-30),2020-056C,2026-07-09T01:04:54.475680,1.00270770,.0002051,0.0134,57.9594,51.8258,68.4325,0,U,46114,999,2151,0,.51E-6,0
GALAXY 33 (G-33),2022-128A,2026-07-09T06:22:54.479712,1.00270292,.00018508,0.0101,348.5811,125.3580,135.9990,0,U,54026,999,1396,0,.93E-6,0
GALAXY 34 (G-34),2022-128B,2026-07-08T16:34:03.223776,1.00272678,.00014397,0.0201,25.9532,97.0196,283.1943,0,U,54027,999,1412,0,0,0
GALAXY 31 (G-31),2022-153A,2026-07-08T23:23:26.666016,1.00271958,.00011365,0.0154,26.7366,93.2200,36.8293,0,U,54243,999,735,0,0,0
GALAXY 32 (G-32),2022-153B,2026-07-08T20:06:40.334976,1.00271791,.00015757,0.0080,13.2899,35.0160,89.1494,0,U,54244,999,1336,0,-.16E-5,0
GALAXY 35 (G-35),2022-170A,2026-07-09T06:21:57.727008,1.00270885,.00019786,0.0126,296.4984,175.4403,177.6557,0,U,54741,999,1311,0,-.149E-5,0
GALAXY 36 (G-36),2022-170B,2026-07-09T06:23:12.608160,1.00271869,.00024865,0.0250,122.4312,334.9560,196.6240,0,U,54742,999,1299,0,-.172E-5,0
GALAXY 37 (G-37),2023-112A,2026-07-09T05:47:38.916096,1.00272643,.00017926,0.0175,43.8222,73.1394,130.1419,0,U,57493,999,1076,0,.62E-6,0
