INTELSAT 23 (IS-23)     
1 38867U 12057A   26190.32197634 -.00000271  00000+0  00000+0 0  9999
2 38867   0.0138  27.5034 0000418 189.0045 133.6672  1.00270076 50171
FM-6                    
1 39360U 13058A   26189.61167403  .00000000  00000+0  00000+0 0  9990
2 39360   0.0459  69.0588 0002607 113.2194 208.1550  1.00271072 46284
INTELSAT 30 (IS-30)     
1 40271U 14062A   26190.26490480 -.00000137  00000+0  00000+0 0  9998
2 40271   0.0203  52.8186 0001154 336.9235 257.7777  1.00270721  7013
DIRECTV 14              
1 40333U 14078B   26189.60473888 -.00000111  00000+0  00000+0 0  9995
2 40333   0.0094  27.8117 0000391 314.0682  63.1432  1.00270853 42259
DIRECTV 15              
1 40663U 15026A   26190.27916120 -.00000089  00000+0  00000+0 0  9995
2 40663   0.0182  70.6170 0000211 237.1992 337.0257  1.00269301 40687
SKY MEXICO-1            
1 40664U 15026B   26190.23543235 -.00000220  00000+0  00000+0 0  9992
2 40664   0.0159 344.1082 0002434 146.8958 162.1271  1.00269950 40672
INTELSAT 34 (IS-34)     
1 40874U 15039A   26190.32197634 -.00000272  00000+0  00000+0 0  9994
2 40874   0.0095   0.4368 0000273 350.7495 356.4925  1.00269773 39859
INTELSAT 31 (IS-31)     
1 41581U 16035A   26190.26490480 -.00000137  00000+0  00000+0 0  9995
2 41581   0.0257 262.4656 0001055  19.6437   5.4099  1.00269957 36901
INTELSAT 36 (IS-36)     
1 41747U 16053A   26188.80017598 -.00000012  00000+0  00000+0 0  9993
2 41747   0.0091  10.2892 0000975  27.8198 244.1989  1.00285795 36163
INTELSAT 32E (IS-32E)   
1 41945U 17007B   26189.77611301 -.00000255  00000+0  00000+0 0  9991
2 41945   0.0157   6.8744 0000683 316.4422 199.6267  1.00268707 34442
INTELSAT 35E (IS-35E)   
1 42818U 17041A   26190.31642144  .00000000  00000+0  00000+0 0  9997
2 42818   0.0259  34.7520 0001569  74.8672 257.0624  1.00269548 33037
INTELSAT 37E (IS-37E)   
1 42950U 17059A   26190.30530887 -.00000127  00000+0  00000+0 0  9993
2 42950   0.0192  41.5278 0002570  73.8090 263.8242  1.00270995 32287
AZERSPACE 2 (IS-38)     
1 43632U 18074A   26190.22137354  .00000000  00000+0  00000+0 0  9991
2 43632   0.0268  37.0075 0001197  87.2013 287.7590  1.00271782 28665
HORIZONS-3E             
1 43633U 18074B   26190.26919753 -.00000017  00000+0  00000+0 0  9996
2 43633   0.0348 213.1030 0001017  68.5787 271.4472  1.00272097 28562
AT&T T-16               
1 44333U 19034A   26189.90724572 -.00000102  00000+0  00000+0 0  9998
2 44333   0.0150  69.4947 0000821 234.2043 208.9039  1.00276266 25854
INTELSAT 39 (IS-39)     
1 44476U 19049B   26189.90878258  .00000000  00000+0  00000+0 0  9999
2 44476   0.0249  29.7598 0000867 289.1456 357.0558  1.00270097 25341
GALAXY 30 (G-30)        
1 46114U 20056C   26190.04507495  .00000051  00000+0  00000+0 0  9995
2 46114   0.0134  57.9594 0002051  51.8258  68.4325  1.00270770 21513
GALAXY 33 (G-33)        
1 54026U 22128A   26190.26590833  .00000093  00000+0  00000+0 0  9996
2 54026   0.0101 348.5811 0001850 125.3580 135.9990  1.00270292 13967
GALAXY 34 (G-34)        
1 54027U 22128B   26189.69031509  .00000000  00000+0  00000+0 0  9990
2 54027   0.0201  25.9532 0001439  97.0196 283.1943  1.00272678 14129
GALAXY 31 (G-31)        
1 54243U 22153A   26189.97461419  .00000000  00000+0  00000+0 0  9996
2 54243   0.0154  26.7366 0001136  93.2200  36.8293  1.00271958  7356
GALAXY 32 (G-32)        
1 54244U 22153B   26189.83796684 -.00000160  00000+0  00000+0 0  9995
2 54244   0.0080  13.2899 0001575  35.0160  89.1494  1.00271791 13360
GALAXY 35 (G-35)        
1 54741U 22170A   26190.26525147 -.00000149  00000+0  00000+0 0  9996
2 54741   0.0126 296.4984 0001978 175.4403 177.6557  1.00270885 13118
GALAXY 36 (G-36)        
1 54742U 22170B   26190.26611815 -.00000172  00000+0  00000+0 0  9991
2 54742   0.0250 122.4312 0002486 334.9560 196.6240  1.00271869 12999
GALAXY 37 (G-37)        
1 57493U 23112A   26190.24142264  .00000062  00000+0  00000+0 0  9996
2 57493   0.0175  43.8222 0001792  73.1394 130.1419  1.00272643 10768
